{"type":"FeatureCollection","features":[{"type":"Feature","geometry":{"type":"Point","coordinates":[-74.00030814706818,40.73225482557368]},"properties":{"name":"W 4th St - Washington Sq (Lower)","line":"B-D-F-M"}},{"type":"Feature","geometry":{"type":"Point","coordinates":[-73.83256899924741,40.84681033168122]},"properties":{"name":"Buhre Ave","line":"6-6 Express"}},{"type":"Feature","geometry":{"type":"Point","coordinates":[-73.97192000013298,40.75710733221505]},"properties":{"name":"51st St","line":"4-6-6 Express"}},{"type":"Feature","geometry":{"type":"Point","coordinates":[-73.9762179981134,40.78864433311557]},"properties":{"name":"86th St","line":"1-2"}},{"type":"Feature","geometry":{"type":"Point","coordinates":[-74.00413100111692,40.71306533205108]},"properties":{"name":"Brooklyn Bridge - City Hall","line":"4-5-6-6 Express"}},{"type":"Feature","geometry":{"type":"Point","coordinates":[-73.98207600124918,40.746081331224474]},"properties":{"name":"33rd St","line":"4-6-6 Express"}},{"type":"Feature","geometry":{"type":"Point","coordinates":[-73.96796700066434,40.762526332958515]},"properties":{"name":"Lexington Ave - 59th St","line":"4-5-6-6 Express"}},{"type":"Feature","geometry":{"type":"Point","coordinates":[-73.85736239433538,40.89314357412857]},"properties":{"name":"233rd St","line":"2-5"}},{"type":"Feature","geometry":{"type":"Point","coordinates":[-73.98220900041206,40.77344033329821]},"properties":{"name":"66th St - Lincoln Ctr","line":"1-2"}},{"type":"Feature","geometry":{"type":"Point","coordinates":[-73.89054899975379,40.82094833093279]},"properties":{"name":"Hunts Point Ave","line":"6-6 Express"}},{"type":"Feature","geometry":{"type":"Point","coordinates":[-74.0062770002375,40.722854330406015]},"properties":{"name":"Canal St","line":"1-2"}},{"type":"Feature","geometry":{"type":"Point","coordinates":[-73.83632199732645,40.843863333740046]},"properties":{"name":"Middletown Rd","line":"6-6 Express"}},{"type":"Feature","geometry":{"type":"Point","coordinates":[-73.98659900183969,40.7398643326176]},"properties":{"name":"23rd St","line":"4-6-6 Express"}},{"type":"Feature","geometry":{"type":"Point","coordinates":[-73.94526400065328,40.747023330930325]},"properties":{"name":"45th Rd - Court House Sq","line":"7-7 Express"}},{"type":"Feature","geometry":{"type":"Point","coordinates":[-73.99106999895497,40.73005433283627]},"properties":{"name":"Astor Pl","line":"4-6-6 Express"}},{"type":"Feature","geometry":{"type":"Point","coordinates":[-73.98192900168252,40.768247333004325]},"properties":{"name":"59th St - Columbus Circle","line":"1-2"}},{"type":"Feature","geometry":{"type":"Point","coordinates":[-73.94891600116063,40.742216332328546]},"properties":{"name":"Hunters Point Ave","line":"7-7 Express"}},{"type":"Feature","geometry":{"type":"Point","coordinates":[-73.95107000070676,40.785672332551975]},"properties":{"name":"96th St","line":"4-6-6 Express"}},{"type":"Feature","geometry":{"type":"Point","coordinates":[-73.8456249978671,40.75462233152458]},"properties":{"name":"Mets - Willets Point","line":"7-7 Express"}},{"type":"Feature","geometry":{"type":"Point","coordinates":[-73.99565700196472,40.74408133195095]},"properties":{"name":"23rd St","line":"1-2"}},{"type":"Feature","geometry":{"type":"Point","coordinates":[-74.00536700184284,40.72825133267478]},"properties":{"name":"Houston St","line":"1-2"}},{"type":"Feature","geometry":{"type":"Point","coordinates":[-73.92613800022268,40.8104763336079]},"properties":{"name":"3rd Ave - 138th St","line":"6-6 Express"}},{"type":"Feature","geometry":{"type":"Point","coordinates":[-73.8470359980454,40.83648833272933]},"properties":{"name":"Zerega Ave","line":"6-6 Express"}},{"type":"Feature","geometry":{"type":"Point","coordinates":[-73.83768299993733,40.68171133326988]},"properties":{"name":"104th St","line":"A-S"}},{"type":"Feature","geometry":{"type":"Point","coordinates":[-73.99467467829565,40.72593123729625]},"properties":{"name":"Bleecker St (Downtown)","line":"4-6-6 Express"}},{"type":"Feature","geometry":{"type":"Point","coordinates":[-73.8512219992089,40.834255330898564]},"properties":{"name":"Castle Hill Ave","line":"6-6 Express"}},{"type":"Feature","geometry":{"type":"Point","coordinates":[-73.81583268677736,40.608402513049555]},"properties":{"name":"Broad Channel","line":"A-S"}},{"type":"Feature","geometry":{"type":"Point","coordinates":[-73.96850100000474,40.57631199964582]},"properties":{"name":"Ocean Pkwy","line":"Q"}},{"type":"Feature","geometry":{"type":"Point","coordinates":[-73.98384899991835,40.76172833214784]},"properties":{"name":"50th St","line":"1-2"}},{"type":"Feature","geometry":{"type":"Point","coordinates":[-73.95358099881997,40.74262633163821]},"properties":{"name":"Vernon Blvd - Jackson Ave","line":"7-7 Express"}},{"type":"Feature","geometry":{"type":"Point","coordinates":[-73.96387000148654,40.76814133297075]},"properties":{"name":"68th St - Hunter College","line":"4-6-6 Express"}},{"type":"Feature","geometry":{"type":"Point","coordinates":[-73.94016353439736,40.7506359834478]},"properties":{"name":"Queensboro Plz","line":"7-7 Express-N-W"}},{"type":"Feature","geometry":{"type":"Point","coordinates":[-73.84385299711742,40.68042933241755]},"properties":{"name":"Rockaway Blvd","line":"A-S"}},{"type":"Feature","geometry":{"type":"Point","coordinates":[-73.98995099886982,40.734673333627924]},"properties":{"name":"Union Sq - 14th St","line":"4-5-6-6 Express"}},{"type":"Feature","geometry":{"type":"Point","coordinates":[-73.86952699979645,40.74914533179798]},"properties":{"name":"Junction Blvd","line":"7-7 Express"}},{"type":"Feature","geometry":{"type":"Point","coordinates":[-73.95999000126952,40.68888933274359]},"properties":{"name":"Classon Ave","line":"G"}},{"type":"Feature","geometry":{"type":"Point","coordinates":[-73.9535219998761,40.689627333980575]},"properties":{"name":"Bedford - Nostrand Aves","line":"G"}},{"type":"Feature","geometry":{"type":"Point","coordinates":[-73.97973580607693,40.66003602075277]},"properties":{"name":"15th St - Prospect Park","line":"F-G"}},{"type":"Feature","geometry":{"type":"Point","coordinates":[-73.98025117886922,40.66624502275791]},"properties":{"name":"7th Ave","line":"F-G"}},{"type":"Feature","geometry":{"type":"Point","coordinates":[-73.97577599885986,40.65078200005558]},"properties":{"name":"Ft Hamilton Pkwy","line":"F-G"}},{"type":"Feature","geometry":{"type":"Point","coordinates":[-73.97972116167192,40.64427233253345]},"properties":{"name":"Church Ave","line":"F-G"}},{"type":"Feature","geometry":{"type":"Point","coordinates":[-73.96435779549273,40.643904930723345]},"properties":{"name":"Beverly Rd","line":"B-Q"}},{"type":"Feature","geometry":{"type":"Point","coordinates":[-73.96288246144861,40.650493578943035]},"properties":{"name":"Church Ave","line":"B-Q"}},{"type":"Feature","geometry":{"type":"Point","coordinates":[-73.96269486847967,40.63514226946216]},"properties":{"name":"Newkirk Ave","line":"B-Q"}},{"type":"Feature","geometry":{"type":"Point","coordinates":[-73.96145344000777,40.6550733737844]},"properties":{"name":"Parkside Ave","line":"B-Q"}},{"type":"Feature","geometry":{"type":"Point","coordinates":[-73.96203130451707,40.66163378723865]},"properties":{"name":"Prospect Park","line":"B-Q-S"}},{"type":"Feature","geometry":{"type":"Point","coordinates":[-73.9709563314429,40.67529502790966]},"properties":{"name":"Grand Army Plaza","line":"2-3-4"}},{"type":"Feature","geometry":{"type":"Point","coordinates":[-73.97499915098906,40.6808624695201]},"properties":{"name":"Bergen St","line":"2-3-4"}},{"type":"Feature","geometry":{"type":"Point","coordinates":[-73.97754993550326,40.68442049760116]},"properties":{"name":"Atlantic Ave","line":"2-3-4-5"}},{"type":"Feature","geometry":{"type":"Point","coordinates":[-73.91194599727311,40.67834033230831]},"properties":{"name":"Rockaway Ave","line":"A-C"}},{"type":"Feature","geometry":{"type":"Point","coordinates":[-73.97537499873906,40.687119331724965]},"properties":{"name":"Fulton St","line":"G"}},{"type":"Feature","geometry":{"type":"Point","coordinates":[-73.96679599830857,40.68809433365578]},"properties":{"name":"Clinton - Washington Aves","line":"G"}},{"type":"Feature","geometry":{"type":"Point","coordinates":[-73.97285279146307,40.67710251195426]},"properties":{"name":"7th Ave","line":"B-Q"}},{"type":"Feature","geometry":{"type":"Point","coordinates":[-73.97678343931099,40.684488655503536]},"properties":{"name":"Atlantic Ave","line":"B-Q"}},{"type":"Feature","geometry":{"type":"Point","coordinates":[-73.98310999931775,40.67731599952716]},"properties":{"name":"Union St","line":"D-N-R"}},{"type":"Feature","geometry":{"type":"Point","coordinates":[-73.97880999934853,40.683665999547046]},"properties":{"name":"Atlantic Av - Pacific St","line":"D-N-R"}},{"type":"Feature","geometry":{"type":"Point","coordinates":[-73.99015100058308,40.69240433216812]},"properties":{"name":"Borough Hall","line":"4-5"}},{"type":"Feature","geometry":{"type":"Point","coordinates":[-73.83591899879404,40.67209733137274]},"properties":{"name":"Aqueduct Racetrack (To Manh Only)","line":"A"}},{"type":"Feature","geometry":{"type":"Point","coordinates":[-73.98182400036208,40.69063499940642]},"properties":{"name":"DeKalb Ave","line":"B-D-N-Q-R"}},{"type":"Feature","geometry":{"type":"Point","coordinates":[-73.86049499998195,40.85436433176652]},"properties":{"name":"Morris Park","line":"5"}},{"type":"Feature","geometry":{"type":"Point","coordinates":[-73.85535900005986,40.858985332005616]},"properties":{"name":"Pelham Pkwy","line":"5"}},{"type":"Feature","geometry":{"type":"Point","coordinates":[-73.95042600048538,40.68043833217454]},"properties":{"name":"Nostrand Ave","line":"A-C"}},{"type":"Feature","geometry":{"type":"Point","coordinates":[-73.98040679867194,40.68831091217309]},"properties":{"name":"Nevins St","line":"2-3-4-5"}},{"type":"Feature","geometry":{"type":"Point","coordinates":[-73.96422203701742,40.67203256799286]},"properties":{"name":"Eastern Pkwy - Bklyn Museum","line":"2-3-4"}},{"type":"Feature","geometry":{"type":"Point","coordinates":[-73.95809973659006,40.67076548552516]},"properties":{"name":"Franklin Ave","line":"2-3-4-5"}},{"type":"Feature","geometry":{"type":"Point","coordinates":[-73.94884798335569,40.6451238517239]},"properties":{"name":"Beverly Rd","line":"2-5"}},{"type":"Feature","geometry":{"type":"Point","coordinates":[-73.94945514032194,40.6508610197765]},"properties":{"name":"Church Ave","line":"2-5"}},{"type":"Feature","geometry":{"type":"Point","coordinates":[-73.94829990753223,40.639991575097845]},"properties":{"name":"Newkirk Ave","line":"2-5"}},{"type":"Feature","geometry":{"type":"Point","coordinates":[-73.94754120719476,40.63284273953496]},"properties":{"name":"Brooklyn College - Flatbush Ave","line":"2-5"}},{"type":"Feature","geometry":{"type":"Point","coordinates":[-73.95007934541682,40.65665964657179]},"properties":{"name":"Winthrop St","line":"2-5"}},{"type":"Feature","geometry":{"type":"Point","coordinates":[-73.950728911504,40.66277332605742]},"properties":{"name":"Sterling St","line":"2-5"}},{"type":"Feature","geometry":{"type":"Point","coordinates":[-73.93293256066342,40.66897864343386]},"properties":{"name":"Crown Hts - Utica Ave","line":"3-4"}},{"type":"Feature","geometry":{"type":"Point","coordinates":[-73.94215978326197,40.66948178067157]},"properties":{"name":"Kingston Ave","line":"3-4"}},{"type":"Feature","geometry":{"type":"Point","coordinates":[-73.94085899839123,40.679919331981246]},"properties":{"name":"Kingston - Throop Aves","line":"A-C"}},{"type":"Feature","geometry":{"type":"Point","coordinates":[-73.95118299979697,40.724480330250536]},"properties":{"name":"Nassau Ave","line":"G"}},{"type":"Feature","geometry":{"type":"Point","coordinates":[-73.95442500175069,40.73126733179012]},"properties":{"name":"Greenpoint Ave","line":"G"}},{"type":"Feature","geometry":{"type":"Point","coordinates":[-73.9578319999985,40.70838333267716]},"properties":{"name":"Marcy Ave","line":"J-M-Z"}},{"type":"Feature","geometry":{"type":"Point","coordinates":[-73.95348800040833,40.70689033028504]},"properties":{"name":"Hewes St","line":"J-M"}},{"type":"Feature","geometry":{"type":"Point","coordinates":[-73.98740940233351,40.71830638815251]},"properties":{"name":"Essex St","line":"J-M-Z"}},{"type":"Feature","geometry":{"type":"Point","coordinates":[-73.92984899948112,40.81322433186519]},"properties":{"name":"138th St - Grand Concourse","line":"4-5"}},{"type":"Feature","geometry":{"type":"Point","coordinates":[-73.97524850466023,40.76008716502786]},"properties":{"name":"5th Ave - 53rd St","line":"E-M"}},{"type":"Feature","geometry":{"type":"Point","coordinates":[-73.96907237417732,40.75746864063934]},"properties":{"name":"Lexington Ave - 53rd St","line":"E-M"}},{"type":"Feature","geometry":{"type":"Point","coordinates":[-73.9886980006626,40.74545433237612]},"properties":{"name":"28th St","line":"N-R"}},{"type":"Feature","geometry":{"type":"Point","coordinates":[-73.98793683324297,40.74964489214577]},"properties":{"name":"Herald Sq - 34th St","line":"N-Q-R"}},{"type":"Feature","geometry":{"type":"Point","coordinates":[-73.98168087509049,40.73097530782765]},"properties":{"name":"1st Ave","line":"L"}},{"type":"Feature","geometry":{"type":"Point","coordinates":[-73.97918900000727,40.75276899923941]},"properties":{"name":"Grand Central - 42nd St","line":"S"}},{"type":"Feature","geometry":{"type":"Point","coordinates":[-73.98622899993683,40.75598333254976]},"properties":{"name":"Times Sq - 42nd St","line":"S"}},{"type":"Feature","geometry":{"type":"Point","coordinates":[-73.98459099839894,40.754184333696514]},"properties":{"name":"42nd St - Bryant Pk","line":"B-D-F-M"}},{"type":"Feature","geometry":{"type":"Point","coordinates":[-73.98676800202695,40.75461233129769]},"properties":{"name":"Times Sq - 42nd St","line":"N-Q-R"}},{"type":"Feature","geometry":{"type":"Point","coordinates":[-73.95142399956141,40.712774333337066]},"properties":{"name":"Metropolitan Ave","line":"G"}},{"type":"Feature","geometry":{"type":"Point","coordinates":[-73.94049699898227,40.711576332884036]},"properties":{"name":"Grand St","line":"L"}},{"type":"Feature","geometry":{"type":"Point","coordinates":[-73.94394399788152,40.71457633056673]},"properties":{"name":"Graham Ave","line":"L"}},{"type":"Feature","geometry":{"type":"Point","coordinates":[-73.95024800019324,40.714072333239244]},"properties":{"name":"Lorimer St","line":"L"}},{"type":"Feature","geometry":{"type":"Point","coordinates":[-73.95666499837016,40.71717433138076]},"properties":{"name":"Bedford Ave","line":"L"}},{"type":"Feature","geometry":{"type":"Point","coordinates":[-73.9503122559598,40.70612690890773]},"properties":{"name":"Broadway","line":"G"}},{"type":"Feature","geometry":{"type":"Point","coordinates":[-73.94735499813582,40.70384433286068]},"properties":{"name":"Lorimer St","line":"J-M"}},{"type":"Feature","geometry":{"type":"Point","coordinates":[-73.93979284651327,40.707391396319544]},"properties":{"name":"Montrose Ave","line":"L"}},{"type":"Feature","geometry":{"type":"Point","coordinates":[-73.94605470270496,40.747768453861696]},"properties":{"name":"23rd St - Ely Av","line":"E-M"}},{"type":"Feature","geometry":{"type":"Point","coordinates":[-73.94381559557154,40.746305366128915]},"properties":{"name":"Long Island City - Court Sq","line":"G"}},{"type":"Feature","geometry":{"type":"Point","coordinates":[-73.94959999937967,40.744128999080004]},"properties":{"name":"21st St","line":"G"}},{"type":"Feature","geometry":{"type":"Point","coordinates":[-73.93285137606902,40.75276339362628]},"properties":{"name":"39th Ave","line":"N-Q"}},{"type":"Feature","geometry":{"type":"Point","coordinates":[-73.9298619983323,40.75644233250436]},"properties":{"name":"36th Ave","line":"N-Q"}},{"type":"Feature","geometry":{"type":"Point","coordinates":[-73.95035999809502,40.82655133184121]},"properties":{"name":"145th St","line":"1"}},{"type":"Feature","geometry":{"type":"Point","coordinates":[-73.94488999874271,40.834041332610305]},"properties":{"name":"157th St","line":"1"}},{"type":"Feature","geometry":{"type":"Point","coordinates":[-73.97232299948288,40.79391933348525]},"properties":{"name":"96th St","line":"1-2-3"}},{"type":"Feature","geometry":{"type":"Point","coordinates":[-73.96837899924822,40.799446333013954]},"properties":{"name":"103rd St","line":"1"}},{"type":"Feature","geometry":{"type":"Point","coordinates":[-73.95182200107372,40.79907533190775]},"properties":{"name":"Central Park North (110th St)","line":"2-3"}},{"type":"Feature","geometry":{"type":"Point","coordinates":[-73.9613700821618,40.796061072629186]},"properties":{"name":"103rd St","line":"A-B-C"}},{"type":"Feature","geometry":{"type":"Point","coordinates":[-73.95806670664342,40.80058189065227]},"properties":{"name":"Cathedral Pkwy (110th St)","line":"A-B-C"}},{"type":"Feature","geometry":{"type":"Point","coordinates":[-73.98197000104184,40.7784533330184]},"properties":{"name":"72nd St","line":"1-2-3"}},{"type":"Feature","geometry":{"type":"Point","coordinates":[-73.97633657548647,40.77551973010138]},"properties":{"name":"72nd St","line":"A-B-C"}},{"type":"Feature","geometry":{"type":"Point","coordinates":[-73.97209794941422,40.781346416791116]},"properties":{"name":"81st St","line":"A-B-C"}},{"type":"Feature","geometry":{"type":"Point","coordinates":[-73.83692369317717,40.71804498613583]},"properties":{"name":"75th Ave","line":"E-F"}},{"type":"Feature","geometry":{"type":"Point","coordinates":[-73.830370270175,40.71403515200448]},"properties":{"name":"Kew Gardens - Union Tpke","line":"E-F"}},{"type":"Feature","geometry":{"type":"Point","coordinates":[-73.968828494562,40.78582337871821]},"properties":{"name":"86th St","line":"A-B-C"}},{"type":"Feature","geometry":{"type":"Point","coordinates":[-73.96460245655108,40.7916191303148]},"properties":{"name":"96th St","line":"A-B-C"}},{"type":"Feature","geometry":{"type":"Point","coordinates":[-73.96684700014316,40.80396733208352]},"properties":{"name":"Cathedral Pkwy (110th St)","line":"1"}},{"type":"Feature","geometry":{"type":"Point","coordinates":[-73.96410999793571,40.807722333328456]},"properties":{"name":"116th St - Columbia University","line":"1"}},{"type":"Feature","geometry":{"type":"Point","coordinates":[-73.94549500019211,40.80775433190706]},"properties":{"name":"125th St","line":"2-3"}},{"type":"Feature","geometry":{"type":"Point","coordinates":[-73.94077000029486,40.814229332544315]},"properties":{"name":"135th St","line":"2-3"}},{"type":"Feature","geometry":{"type":"Point","coordinates":[-73.92738475430812,40.818303775913265]},"properties":{"name":"149th St - Grand Concourse","line":"4"}},{"type":"Feature","geometry":{"type":"Point","coordinates":[-73.94962500105143,40.80209833161256]},"properties":{"name":"116th St","line":"2-3"}},{"type":"Feature","geometry":{"type":"Point","coordinates":[-73.90522700088012,40.850410332254484]},"properties":{"name":"Tremont Ave","line":"B-D"}},{"type":"Feature","geometry":{"type":"Point","coordinates":[-73.90074099926741,40.85609333094426]},"properties":{"name":"182nd-183rd Sts","line":"B-D"}},{"type":"Feature","geometry":{"type":"Point","coordinates":[-73.95367600034146,40.82200833171166]},"properties":{"name":"137th St - City College","line":"1"}},{"type":"Feature","geometry":{"type":"Point","coordinates":[-73.93624499890737,40.82042133204534]},"properties":{"name":"145th St","line":"3"}},{"type":"Feature","geometry":{"type":"Point","coordinates":[-73.91179399805142,40.848480333300515]},"properties":{"name":"176th St","line":"4"}},{"type":"Feature","geometry":{"type":"Point","coordinates":[-73.90768400066491,40.85345333349509]},"properties":{"name":"Burnside Ave","line":"4"}},{"type":"Feature","geometry":{"type":"Point","coordinates":[-73.91339999796044,40.839306332395175]},"properties":{"name":"170th St","line":"B-D"}},{"type":"Feature","geometry":{"type":"Point","coordinates":[-73.91013600003971,40.845900332638486]},"properties":{"name":"174th-175th Sts","line":"B-D"}},{"type":"Feature","geometry":{"type":"Point","coordinates":[-73.940132998897,40.84055633192146]},"properties":{"name":"168th St","line":"1"}},{"type":"Feature","geometry":{"type":"Point","coordinates":[-73.9335959998164,40.849505332362504]},"properties":{"name":"181st St","line":"1"}},{"type":"Feature","geometry":{"type":"Point","coordinates":[-73.93956099987888,40.84071933253172]},"properties":{"name":"168th St","line":"A-C"}},{"type":"Feature","geometry":{"type":"Point","coordinates":[-73.92941199761114,40.855225334075584]},"properties":{"name":"191st St","line":"1"}},{"type":"Feature","geometry":{"type":"Point","coordinates":[-73.9397039967383,40.84739133302042]},"properties":{"name":"175th St","line":"A"}},{"type":"Feature","geometry":{"type":"Point","coordinates":[-73.77601299886844,40.59294333169343]},"properties":{"name":"Beach 44th St","line":"A"}},{"type":"Feature","geometry":{"type":"Point","coordinates":[-73.78852199717775,40.5923743336834]},"properties":{"name":"Beach 60th St","line":"A"}},{"type":"Feature","geometry":{"type":"Point","coordinates":[-73.82758074931658,40.58326877004643]},"properties":{"name":"Beach 105th St","line":"A-S"}},{"type":"Feature","geometry":{"type":"Point","coordinates":[-73.8205205887206,40.58538602332184]},"properties":{"name":"Beach 98th St","line":"A-S"}},{"type":"Feature","geometry":{"type":"Point","coordinates":[-73.83559008596315,40.58095619823413]},"properties":{"name":"Rockaway Park - Beach 116 St","line":"A-S"}},{"type":"Feature","geometry":{"type":"Point","coordinates":[-73.81365140294545,40.58809189674864]},"properties":{"name":"Beach 90th St","line":"A-S"}},{"type":"Feature","geometry":{"type":"Point","coordinates":[-73.76817499792803,40.59539833362945]},"properties":{"name":"Beach 36th St","line":"A"}},{"type":"Feature","geometry":{"type":"Point","coordinates":[-73.7613529967363,40.60006633328723]},"properties":{"name":"Beach 25th St","line":"A"}},{"type":"Feature","geometry":{"type":"Point","coordinates":[-73.80328899878045,40.7075723323415]},"properties":{"name":"Parsons Blvd","line":"F"}},{"type":"Feature","geometry":{"type":"Point","coordinates":[-73.79347419781818,40.71051783545284]},"properties":{"name":"169th St","line":"F"}},{"type":"Feature","geometry":{"type":"Point","coordinates":[-73.86269999706153,40.74986533336835]},"properties":{"name":"103rd St - Corona Plaza","line":"7"}},{"type":"Feature","geometry":{"type":"Point","coordinates":[-73.85533399729219,40.75173033206642]},"properties":{"name":"111th St","line":"7"}},{"type":"Feature","geometry":{"type":"Point","coordinates":[-73.86161820029051,40.72976430453871]},"properties":{"name":"63rd Dr - Rego Park","line":"E-M-R"}},{"type":"Feature","geometry":{"type":"Point","coordinates":[-73.86504999808707,40.67704433291963]},"properties":{"name":"Grant Ave","line":"A-S"}},{"type":"Feature","geometry":{"type":"Point","coordinates":[-73.97991700040637,40.783934331807515]},"properties":{"name":"79th St","line":"1-2"}},{"type":"Feature","geometry":{"type":"Point","coordinates":[-73.90309699915747,40.675344998510326]},"properties":{"name":"Atlantic Ave","line":"L"}},{"type":"Feature","geometry":{"type":"Point","coordinates":[-74.00290599889694,40.73342233304197]},"properties":{"name":"Christopher St - Sheridan Sq","line":"1-2"}},{"type":"Feature","geometry":{"type":"Point","coordinates":[-73.9040979979671,40.81211833080464]},"properties":{"name":"E 149th St","line":"6"}},{"type":"Feature","geometry":{"type":"Point","coordinates":[-73.82579799839583,40.68595133106681]},"properties":{"name":"Ozone Park - Lefferts Blvd","line":"A-S"}},{"type":"Feature","geometry":{"type":"Point","coordinates":[-73.98769099765994,40.75547733405752]},"properties":{"name":"Times Sq - 42nd St","line":"7-7 Express"}},{"type":"Feature","geometry":{"type":"Point","coordinates":[-73.95987399807251,40.773620333081745]},"properties":{"name":"77th St","line":"4-6-6 Express"}},{"type":"Feature","geometry":{"type":"Point","coordinates":[-73.90298400085231,40.74563033308078]},"properties":{"name":"Woodside - 61st St","line":"7-7 Express"}},{"type":"Feature","geometry":{"type":"Point","coordinates":[-73.83216299793182,40.68433133249258]},"properties":{"name":"111th St","line":"A-S"}},{"type":"Feature","geometry":{"type":"Point","coordinates":[-73.83003000183336,40.75960033143994]},"properties":{"name":"Flushing - Main St","line":"7-7 Express"}},{"type":"Feature","geometry":{"type":"Point","coordinates":[-73.9759578740407,40.57603415026776]},"properties":{"name":"W 8th St - NY Aquarium","line":"F-Q"}},{"type":"Feature","geometry":{"type":"Point","coordinates":[-73.9933650013927,40.74721533142343]},"properties":{"name":"28th St","line":"1-2"}},{"type":"Feature","geometry":{"type":"Point","coordinates":[-73.98426400149614,40.743070331894835]},"properties":{"name":"28th St","line":"4-6-6 Express"}},{"type":"Feature","geometry":{"type":"Point","coordinates":[-73.82812099995712,40.852462332212276]},"properties":{"name":"Pelham Bay Park","line":"6-6 Express"}},{"type":"Feature","geometry":{"type":"Point","coordinates":[-73.84295199835398,40.839892333464185]},"properties":{"name":"Westchester Sq - E Tremont Ave","line":"6-6 Express"}},{"type":"Feature","geometry":{"type":"Point","coordinates":[-73.99787100112229,40.74104033203364]},"properties":{"name":"18th St","line":"1-2"}},{"type":"Feature","geometry":{"type":"Point","coordinates":[-73.97671329936158,40.75180776218185]},"properties":{"name":"Grand Central - 42nd St","line":"4-5-6-6 Express"}},{"type":"Feature","geometry":{"type":"Point","coordinates":[-73.97604100119781,40.75143133258379]},"properties":{"name":"Grand Central - 42nd St","line":"7-7 Express"}},{"type":"Feature","geometry":{"type":"Point","coordinates":[-74.00019299900349,40.718803333794426]},"properties":{"name":"Canal St","line":"4-6-6 Express"}},{"type":"Feature","geometry":{"type":"Point","coordinates":[-73.79692399899518,40.59092733335806]},"properties":{"name":"Beach 67th St","line":"A"}},{"type":"Feature","geometry":{"type":"Point","coordinates":[-74.00049500225539,40.73233833044847]},"properties":{"name":"W 4th St - Washington Sq (Upper)","line":"A-C-E"}},{"type":"Feature","geometry":{"type":"Point","coordinates":[-73.85286048368059,40.72650580841375]},"properties":{"name":"67th Ave","line":"E-M-R"}},{"type":"Feature","geometry":{"type":"Point","coordinates":[-73.86008699933825,40.69242733211075]},"properties":{"name":"85th St - Forest Pky","line":"J"}},{"type":"Feature","geometry":{"type":"Point","coordinates":[-73.85205199698797,40.69370433161678]},"properties":{"name":"Woodhaven Blvd","line":"J-Z"}},{"type":"Feature","geometry":{"type":"Point","coordinates":[-73.83679338316995,40.69711514348883]},"properties":{"name":"111th St","line":"J"}},{"type":"Feature","geometry":{"type":"Point","coordinates":[-73.82834899922639,40.70048233074198]},"properties":{"name":"121st St","line":"J-Z"}},{"type":"Feature","geometry":{"type":"Point","coordinates":[-73.80800471916437,40.70038275659072]},"properties":{"name":"Sutphin Blvd - Archer Av","line":"E-J-Z"}},{"type":"Feature","geometry":{"type":"Point","coordinates":[-73.90393400047107,40.69551833354902]},"properties":{"name":"Halsey St","line":"L"}},{"type":"Feature","geometry":{"type":"Point","coordinates":[-73.91097571780212,40.69947139440521]},"properties":{"name":"Myrtle Ave","line":"L"}},{"type":"Feature","geometry":{"type":"Point","coordinates":[-73.88411070786465,40.66631526464169]},"properties":{"name":"New Lots Ave","line":"3-4"}},{"type":"Feature","geometry":{"type":"Point","coordinates":[-73.88940491629889,40.66551829573673]},"properties":{"name":"Van Siclen Ave","line":"3-4"}},{"type":"Feature","geometry":{"type":"Point","coordinates":[-73.89488591124227,40.664714783421225]},"properties":{"name":"Pennsylvania Ave","line":"3-4"}},{"type":"Feature","geometry":{"type":"Point","coordinates":[-73.89035799977013,40.672710331191254]},"properties":{"name":"Van Siclen Ave","line":"A-C"}},{"type":"Feature","geometry":{"type":"Point","coordinates":[-73.89165772599061,40.678028547200945]},"properties":{"name":"Van Siclen Ave","line":"J-Z"}},{"type":"Feature","geometry":{"type":"Point","coordinates":[-73.88519400124282,40.679778331367174]},"properties":{"name":"Cleveland St","line":"J"}},{"type":"Feature","geometry":{"type":"Point","coordinates":[-73.9005623715631,40.66405760324956]},"properties":{"name":"Livonia Ave","line":"L"}},{"type":"Feature","geometry":{"type":"Point","coordinates":[-73.90191599959428,40.66914533281994]},"properties":{"name":"Sutter Ave","line":"L"}},{"type":"Feature","geometry":{"type":"Point","coordinates":[-73.90244864097306,40.66358933397658]},"properties":{"name":"Junius St","line":"3-4"}},{"type":"Feature","geometry":{"type":"Point","coordinates":[-73.90895833563903,40.662617820098795]},"properties":{"name":"Rockaway Ave","line":"3-4"}},{"type":"Feature","geometry":{"type":"Point","coordinates":[-73.90184999993393,40.64665399951288]},"properties":{"name":"Canarsie - Rockaway Pkwy","line":"L"}},{"type":"Feature","geometry":{"type":"Point","coordinates":[-73.89954769314156,40.6504691174794]},"properties":{"name":"E 105th St","line":"L"}},{"type":"Feature","geometry":{"type":"Point","coordinates":[-73.91633024966036,40.66153012228152]},"properties":{"name":"Saratoga Ave","line":"3-4"}},{"type":"Feature","geometry":{"type":"Point","coordinates":[-73.92252118506696,40.6647671212749]},"properties":{"name":"Sutter Ave - Rutland Road","line":"3-4"}},{"type":"Feature","geometry":{"type":"Point","coordinates":[-73.89927796012275,40.65891510595766]},"properties":{"name":"New Lots Ave","line":"L"}},{"type":"Feature","geometry":{"type":"Point","coordinates":[-73.75540499789503,40.603995333787914]},"properties":{"name":"Far Rockaway - Mott Ave","line":"A"}},{"type":"Feature","geometry":{"type":"Point","coordinates":[-73.91038356930939,40.6828516335617]},"properties":{"name":"Chauncey St","line":"J-Z"}},{"type":"Feature","geometry":{"type":"Point","coordinates":[-73.90428999742534,40.67936633364182]},"properties":{"name":"Broadway Junction","line":"J-Z"}},{"type":"Feature","geometry":{"type":"Point","coordinates":[-73.9166388839509,40.6864156035108]},"properties":{"name":"Halsey St","line":"J"}},{"type":"Feature","geometry":{"type":"Point","coordinates":[-73.89852600099037,40.67699833266829]},"properties":{"name":"Alabama Ave","line":"J"}},{"type":"Feature","geometry":{"type":"Point","coordinates":[-73.88074999710291,40.67413033392656]},"properties":{"name":"Shepherd Ave","line":"A-C"}},{"type":"Feature","geometry":{"type":"Point","coordinates":[-73.87962599833818,40.68152033296197]},"properties":{"name":"Norwood Ave","line":"J-Z"}},{"type":"Feature","geometry":{"type":"Point","coordinates":[-73.873929251904,40.683152989546045]},"properties":{"name":"Crescent St","line":"J-Z"}},{"type":"Feature","geometry":{"type":"Point","coordinates":[-73.87332199828751,40.68961633326342]},"properties":{"name":"Cypress Hills","line":"J"}},{"type":"Feature","geometry":{"type":"Point","coordinates":[-73.86728799875733,40.69129033368883]},"properties":{"name":"75th St - Eldert Ln","line":"J-Z"}},{"type":"Feature","geometry":{"type":"Point","coordinates":[-73.89640299838601,40.74632533189121]},"properties":{"name":"69th St","line":"7"}},{"type":"Feature","geometry":{"type":"Point","coordinates":[-73.89120512838272,40.74686790647675]},"properties":{"name":"74th St - Broadway","line":"7"}},{"type":"Feature","geometry":{"type":"Point","coordinates":[-73.8987883776696,40.74971986177836]},"properties":{"name":"65th St","line":"E-M-R"}},{"type":"Feature","geometry":{"type":"Point","coordinates":[-73.86943208499198,40.73309770621733]},"properties":{"name":"Woodhaven Blvd - Queens Mall","line":"E-M-R"}},{"type":"Feature","geometry":{"type":"Point","coordinates":[-73.9121789987563,40.699454333715686]},"properties":{"name":"Wyckoff Ave","line":"M"}},{"type":"Feature","geometry":{"type":"Point","coordinates":[-73.90758199842973,40.70291933169435]},"properties":{"name":"Seneca Ave","line":"M"}},{"type":"Feature","geometry":{"type":"Point","coordinates":[-73.91823200153037,40.703693331635726]},"properties":{"name":"DeKalb Ave","line":"L"}},{"type":"Feature","geometry":{"type":"Point","coordinates":[-73.91254899814017,40.744149333416985]},"properties":{"name":"52nd St","line":"7"}},{"type":"Feature","geometry":{"type":"Point","coordinates":[-73.9135217500592,40.756317285064846]},"properties":{"name":"46th St","line":"E-M-R"}},{"type":"Feature","geometry":{"type":"Point","coordinates":[-73.90606508028188,40.752825162029055]},"properties":{"name":"Northern Blvd","line":"E-M-R"}},{"type":"Feature","geometry":{"type":"Point","coordinates":[-73.91843500055467,40.74313233319539]},"properties":{"name":"46th St","line":"7"}},{"type":"Feature","geometry":{"type":"Point","coordinates":[-73.88369699986343,40.74765933226925]},"properties":{"name":"82nd St - Jackson Hts","line":"7"}},{"type":"Feature","geometry":{"type":"Point","coordinates":[-73.87661299894197,40.74840833306977]},"properties":{"name":"90th St - Elmhurst Av","line":"7"}},{"type":"Feature","geometry":{"type":"Point","coordinates":[-73.87722085593695,40.73681375027579]},"properties":{"name":"Grand Ave - Newtown","line":"E-M-R"}},{"type":"Feature","geometry":{"type":"Point","coordinates":[-73.88203474588964,40.74237041207057]},"properties":{"name":"Elmhurst Ave","line":"E-M-R"}},{"type":"Feature","geometry":{"type":"Point","coordinates":[-73.83030099930426,40.66047633219049]},"properties":{"name":"Howard Beach - JFK Airport","line":"A"}},{"type":"Feature","geometry":{"type":"Point","coordinates":[-73.83405799882615,40.66823433364754]},"properties":{"name":"Aqueduct - North Conduit Av","line":"A"}},{"type":"Feature","geometry":{"type":"Point","coordinates":[-73.84443499900188,40.695166330956006]},"properties":{"name":"104th-102nd Sts","line":"J-Z"}},{"type":"Feature","geometry":{"type":"Point","coordinates":[-73.82069263553899,40.70916214793041]},"properties":{"name":"Briarwood - Van Wyck Blvd","line":"E-F"}},{"type":"Feature","geometry":{"type":"Point","coordinates":[-73.84451671920684,40.72159464200387]},"properties":{"name":"Forest Hills - 71st Av","line":"E-F-M-R"}},{"type":"Feature","geometry":{"type":"Point","coordinates":[-73.81083299827162,40.70541833159709]},"properties":{"name":"Sutphin Blvd","line":"F"}},{"type":"Feature","geometry":{"type":"Point","coordinates":[-73.81701287026026,40.70289888566535]},"properties":{"name":"Jamaica - Van Wyck","line":"E"}},{"type":"Feature","geometry":{"type":"Point","coordinates":[-73.80109632198105,40.70206770831371]},"properties":{"name":"Jamaica Ctr - Parsons / Archer","line":"E-J-Z"}},{"type":"Feature","geometry":{"type":"Point","coordinates":[-73.89306639471828,40.82397717392752]},"properties":{"name":"Simpson St","line":"2-5"}},{"type":"Feature","geometry":{"type":"Point","coordinates":[-73.89175225285321,40.82998777901178]},"properties":{"name":"Freeman St","line":"2-5"}},{"type":"Feature","geometry":{"type":"Point","coordinates":[-73.86021461686789,40.888028590641945]},"properties":{"name":"225th St","line":"2-5"}},{"type":"Feature","geometry":{"type":"Point","coordinates":[-73.87915899781719,40.828584333639306]},"properties":{"name":"Elder Ave","line":"6"}},{"type":"Feature","geometry":{"type":"Point","coordinates":[-73.87451599884416,40.829521334164745]},"properties":{"name":"Morrison Av - Soundview","line":"6"}},{"type":"Feature","geometry":{"type":"Point","coordinates":[-73.89643499864893,40.81610433270999]},"properties":{"name":"Longwood Ave","line":"6"}},{"type":"Feature","geometry":{"type":"Point","coordinates":[-73.91809500082114,40.77003733158411]},"properties":{"name":"Astoria Blvd","line":"N-Q"}},{"type":"Feature","geometry":{"type":"Point","coordinates":[-73.91203400018497,40.775035998745246]},"properties":{"name":"Astoria - Ditmars Blvd","line":"N-Q"}},{"type":"Feature","geometry":{"type":"Point","coordinates":[-73.90770193853464,40.81643779887532]},"properties":{"name":"Jackson Ave","line":"2-5"}},{"type":"Feature","geometry":{"type":"Point","coordinates":[-73.90177778624373,40.81948759687329]},"properties":{"name":"Prospect Ave","line":"2-5"}},{"type":"Feature","geometry":{"type":"Point","coordinates":[-73.9140419994168,40.805368333418464]},"properties":{"name":"Cypress Ave","line":"6"}},{"type":"Feature","geometry":{"type":"Point","coordinates":[-73.88628299832425,40.82652533286839]},"properties":{"name":"Whitlock Ave","line":"6"}},{"type":"Feature","geometry":{"type":"Point","coordinates":[-73.896617383584,40.822142463491446]},"properties":{"name":"Intervale Ave","line":"2-5"}},{"type":"Feature","geometry":{"type":"Point","coordinates":[-73.88769359751677,40.837195882379646]},"properties":{"name":"174th St","line":"2-5"}},{"type":"Feature","geometry":{"type":"Point","coordinates":[-73.86748067761883,40.85719274156798]},"properties":{"name":"Pelham Pkwy","line":"2-5"}},{"type":"Feature","geometry":{"type":"Point","coordinates":[-73.86723422776343,40.865483710642366]},"properties":{"name":"Allerton Ave","line":"2-5"}},{"type":"Feature","geometry":{"type":"Point","coordinates":[-73.90765699883941,40.808719333203044]},"properties":{"name":"E 143rd St - St Mary's St","line":"6"}},{"type":"Feature","geometry":{"type":"Point","coordinates":[-73.89717400101904,40.86776033281104]},"properties":{"name":"Kingsbridge Rd","line":"4"}},{"type":"Feature","geometry":{"type":"Point","coordinates":[-73.89006400056147,40.87341233175917]},"properties":{"name":"Bedford Park Blvd - Lehman College","line":"4"}},{"type":"Feature","geometry":{"type":"Point","coordinates":[-73.93646999991864,40.823880333142384]},"properties":{"name":"Harlem - 148 St","line":"3"}},{"type":"Feature","geometry":{"type":"Point","coordinates":[-73.91468499864921,40.8444343328997]},"properties":{"name":"Mt Eden Ave","line":"4"}},{"type":"Feature","geometry":{"type":"Point","coordinates":[-73.89774900076844,40.861296330886695]},"properties":{"name":"Fordham Rd","line":"B-D"}},{"type":"Feature","geometry":{"type":"Point","coordinates":[-73.91779099709349,40.8400753319014]},"properties":{"name":"170th St","line":"4"}},{"type":"Feature","geometry":{"type":"Point","coordinates":[-73.8935090000309,40.86697833238542]},"properties":{"name":"Kingsbridge Rd","line":"B-D"}},{"type":"Feature","geometry":{"type":"Point","coordinates":[-73.88713799869907,40.87324433078602]},"properties":{"name":"Bedford Park Blvd","line":"B-D"}},{"type":"Feature","geometry":{"type":"Point","coordinates":[-73.90983099891767,40.87456133181964]},"properties":{"name":"Marble Hill - 225th St","line":"1"}},{"type":"Feature","geometry":{"type":"Point","coordinates":[-73.9048340004263,40.87885633094057]},"properties":{"name":"231st St","line":"1"}},{"type":"Feature","geometry":{"type":"Point","coordinates":[-73.91527899930836,40.869444331971195]},"properties":{"name":"215th St","line":"1"}},{"type":"Feature","geometry":{"type":"Point","coordinates":[-73.91881900072035,40.86461433278033]},"properties":{"name":"207th St","line":"1"}},{"type":"Feature","geometry":{"type":"Point","coordinates":[-73.91989900076257,40.868072332331586]},"properties":{"name":"Inwood - 207th St","line":"A"}},{"type":"Feature","geometry":{"type":"Point","coordinates":[-73.90086999936254,40.88466733339259]},"properties":{"name":"238th St","line":"1"}},{"type":"Feature","geometry":{"type":"Point","coordinates":[-73.89858299979805,40.88924833251641]},"properties":{"name":"Van Cortlandt Park - 242nd St","line":"1"}},{"type":"Feature","geometry":{"type":"Point","coordinates":[-73.87996127809551,40.84020796450718]},"properties":{"name":"West Farms Sq - E Tremont Av","line":"2-5"}},{"type":"Feature","geometry":{"type":"Point","coordinates":[-73.86761799826297,40.83150933313622]},"properties":{"name":"St Lawrence Ave","line":"6"}},{"type":"Feature","geometry":{"type":"Point","coordinates":[-73.868356091237,40.84876899887755]},"properties":{"name":"Bronx Park East","line":"2-5"}},{"type":"Feature","geometry":{"type":"Point","coordinates":[-73.86613410422366,40.87783971778193]},"properties":{"name":"Gun Hill Rd","line":"2-5"}},{"type":"Feature","geometry":{"type":"Point","coordinates":[-73.86250970748023,40.88388830660065]},"properties":{"name":"219th St","line":"2-5"}},{"type":"Feature","geometry":{"type":"Point","coordinates":[-73.88465499988875,40.879750332035385]},"properties":{"name":"Mosholu Pkwy","line":"4"}},{"type":"Feature","geometry":{"type":"Point","coordinates":[-73.87885499849911,40.87481133274861]},"properties":{"name":"Norwood - 205th St","line":"D"}},{"type":"Feature","geometry":{"type":"Point","coordinates":[-73.86705361677082,40.8712591346807]},"properties":{"name":"Burke Ave","line":"2-5"}},{"type":"Feature","geometry":{"type":"Point","coordinates":[-73.83859099777185,40.87866333281152]},"properties":{"name":"Baychester Ave","line":"5"}},{"type":"Feature","geometry":{"type":"Point","coordinates":[-73.83083400082735,40.8883003315566]},"properties":{"name":"Eastchester - Dyre Ave","line":"5"}},{"type":"Feature","geometry":{"type":"Point","coordinates":[-73.78381700044146,40.712645999008004]},"properties":{"name":"Jamaica - 179th St","line":"F"}},{"type":"Feature","geometry":{"type":"Point","coordinates":[-73.85061999835266,40.90312533314965]},"properties":{"name":"Wakefield - 241st St","line":"2"}},{"type":"Feature","geometry":{"type":"Point","coordinates":[-73.9592449997529,40.67034299904337]},"properties":{"name":"Botanic Garden","line":"S"}},{"type":"Feature","geometry":{"type":"Point","coordinates":[-73.90526176227324,40.68286095755838]},"properties":{"name":"Bushwick - Aberdeen","line":"L"}},{"type":"Feature","geometry":{"type":"Point","coordinates":[-73.90395860493139,40.68886687439795]},"properties":{"name":"Wilson Ave","line":"L"}},{"type":"Feature","geometry":{"type":"Point","coordinates":[-73.9031175784343,40.67845658110124]},"properties":{"name":"Broadway Junction","line":"L"}},{"type":"Feature","geometry":{"type":"Point","coordinates":[-73.84638400102965,40.869526331954305]},"properties":{"name":"Gun Hill Rd","line":"5"}},{"type":"Feature","geometry":{"type":"Point","coordinates":[-73.87334609435001,40.84186337356547]},"properties":{"name":"E 180th St","line":"2-5"}},{"type":"Feature","geometry":{"type":"Point","coordinates":[-73.92553599977494,40.860531333640004]},"properties":{"name":"Dyckman St","line":"1"}},{"type":"Feature","geometry":{"type":"Point","coordinates":[-73.95837200092971,40.81558133199305]},"properties":{"name":"125th St","line":"1"}},{"type":"Feature","geometry":{"type":"Point","coordinates":[-73.957624000331,40.674771998954476]},"properties":{"name":"Park Pl","line":"S"}},{"type":"Feature","geometry":{"type":"Point","coordinates":[-73.95582700108791,40.680595998495264]},"properties":{"name":"Franklin Ave - Fulton St","line":"S"}},{"type":"Feature","geometry":{"type":"Point","coordinates":[-73.85431530997909,40.898286848184306]},"properties":{"name":"Nereid Ave (238 St)","line":"2-5"}},{"type":"Feature","geometry":{"type":"Point","coordinates":[-73.92672247457743,40.818330476177714]},"properties":{"name":"149th St - Grand Concourse","line":"2-5"}},{"type":"Feature","geometry":{"type":"Point","coordinates":[-73.91779152703786,40.81602958477588]},"properties":{"name":"3rd Ave - 149th St","line":"2-5"}},{"type":"Feature","geometry":{"type":"Point","coordinates":[-73.92569199495196,40.82823065970236]},"properties":{"name":"161st St - Yankee Stadium","line":"4"}},{"type":"Feature","geometry":{"type":"Point","coordinates":[-73.92139999756643,40.835537332087874]},"properties":{"name":"167th St","line":"4"}},{"type":"Feature","geometry":{"type":"Point","coordinates":[-73.91923999817342,40.80756633231699]},"properties":{"name":"Brook Ave","line":"6"}},{"type":"Feature","geometry":{"type":"Point","coordinates":[-73.9309969987384,40.74458733265962]},"properties":{"name":"33rd St","line":"7"}},{"type":"Feature","geometry":{"type":"Point","coordinates":[-73.92401599806122,40.74378133376432]},"properties":{"name":"40th St","line":"7"}},{"type":"Feature","geometry":{"type":"Point","coordinates":[-73.94408792835772,40.82476669313109]},"properties":{"name":"145th St","line":"A-B-C-D"}},{"type":"Feature","geometry":{"type":"Point","coordinates":[-73.93820899809948,40.83013533228224]},"properties":{"name":"155th St","line":"B-D"}},{"type":"Feature","geometry":{"type":"Point","coordinates":[-73.92565099751468,40.827905331479776]},"properties":{"name":"161st St - Yankee Stadium","line":"B-D"}},{"type":"Feature","geometry":{"type":"Point","coordinates":[-73.91843200077074,40.83376933112564]},"properties":{"name":"167th St","line":"B-D"}},{"type":"Feature","geometry":{"type":"Point","coordinates":[-73.92078599919039,40.67882233359086]},"properties":{"name":"Ralph Ave","line":"A-C"}},{"type":"Feature","geometry":{"type":"Point","coordinates":[-73.93072899845316,40.67936433208371]},"properties":{"name":"Utica Ave","line":"A-C"}},{"type":"Feature","geometry":{"type":"Point","coordinates":[-73.92901818470378,40.75196037654921]},"properties":{"name":"36th St","line":"E-M-R"}},{"type":"Feature","geometry":{"type":"Point","coordinates":[-73.92052647104087,40.75698769179131]},"properties":{"name":"Steinway St","line":"E-M-R"}},{"type":"Feature","geometry":{"type":"Point","coordinates":[-73.92850899856911,40.693172333304105]},"properties":{"name":"Kosciuszko St","line":"J"}},{"type":"Feature","geometry":{"type":"Point","coordinates":[-73.92215600058695,40.68958433163534]},"properties":{"name":"Gates Ave","line":"J-Z"}},{"type":"Feature","geometry":{"type":"Point","coordinates":[-73.92724299829534,40.69787333245757]},"properties":{"name":"Central Ave","line":"M"}},{"type":"Feature","geometry":{"type":"Point","coordinates":[-73.91972000097107,40.69866033384]},"properties":{"name":"Knickerbocker Ave","line":"M"}},{"type":"Feature","geometry":{"type":"Point","coordinates":[-73.92582299856421,40.761432331091726]},"properties":{"name":"Broadway","line":"N-Q"}},{"type":"Feature","geometry":{"type":"Point","coordinates":[-73.92147900005986,40.76677899879946]},"properties":{"name":"30th Ave","line":"N-Q"}},{"type":"Feature","geometry":{"type":"Point","coordinates":[-73.9229129995305,40.706606998427034]},"properties":{"name":"Jefferson St","line":"L"}},{"type":"Feature","geometry":{"type":"Point","coordinates":[-73.93314699998827,40.70615199916679]},"properties":{"name":"Morgan Ave","line":"L"}},{"type":"Feature","geometry":{"type":"Point","coordinates":[-73.93713823926093,40.748918052195435]},"properties":{"name":"Queens Plz","line":"E-M-R"}},{"type":"Feature","geometry":{"type":"Point","coordinates":[-73.97697099987745,40.629754999184065]},"properties":{"name":"18th Ave","line":"F"}},{"type":"Feature","geometry":{"type":"Point","coordinates":[-73.97817199992703,40.63611899886778]},"properties":{"name":"Ditmas Ave","line":"F"}},{"type":"Feature","geometry":{"type":"Point","coordinates":[-74.02550999958471,40.62974199921923]},"properties":{"name":"77th St","line":"R"}},{"type":"Feature","geometry":{"type":"Point","coordinates":[-74.02337699924082,40.63496699934776]},"properties":{"name":"Bay Ridge Ave","line":"R"}},{"type":"Feature","geometry":{"type":"Point","coordinates":[-73.99534882553111,40.63147909345306]},"properties":{"name":"55th St","line":"D"}},{"type":"Feature","geometry":{"type":"Point","coordinates":[-73.99465878009647,40.636261223451385]},"properties":{"name":"50th St","line":"D"}},{"type":"Feature","geometry":{"type":"Point","coordinates":[-74.0053510007241,40.631385999211595]},"properties":{"name":"Ft Hamilton Pkwy","line":"N"}},{"type":"Feature","geometry":{"type":"Point","coordinates":[-74.01151599735906,40.63497133190368]},"properties":{"name":"8th Ave","line":"N"}},{"type":"Feature","geometry":{"type":"Point","coordinates":[-73.98682900016435,40.59770399923523]},"properties":{"name":"25th Ave","line":"D"}},{"type":"Feature","geometry":{"type":"Point","coordinates":[-73.99367619973995,40.6019507942803]},"properties":{"name":"Bay Pky","line":"D"}},{"type":"Feature","geometry":{"type":"Point","coordinates":[-73.98452199841235,40.6171093320831]},"properties":{"name":"20th Ave","line":"N"}},{"type":"Feature","geometry":{"type":"Point","coordinates":[-73.99045399859847,40.620687330316166]},"properties":{"name":"18th Ave","line":"N"}},{"type":"Feature","geometry":{"type":"Point","coordinates":[-74.03087600063023,40.61662199967881]},"properties":{"name":"Bay Ridge - 95th St","line":"R"}},{"type":"Feature","geometry":{"type":"Point","coordinates":[-74.02839800028353,40.62268699939043]},"properties":{"name":"86th St","line":"R"}},{"type":"Feature","geometry":{"type":"Point","coordinates":[-74.00058287394693,40.613159258412]},"properties":{"name":"79th St","line":"D"}},{"type":"Feature","geometry":{"type":"Point","coordinates":[-73.99884094905444,40.61925904207569]},"properties":{"name":"71st St","line":"D"}},{"type":"Feature","geometry":{"type":"Point","coordinates":[-73.9981743210267,40.60467733012288]},"properties":{"name":"20th Ave","line":"D"}},{"type":"Feature","geometry":{"type":"Point","coordinates":[-74.00159259254066,40.607736064277006]},"properties":{"name":"18th Ave","line":"D"}},{"type":"Feature","geometry":{"type":"Point","coordinates":[-73.99685725051661,40.62622479517215]},"properties":{"name":"62nd St","line":"D"}},{"type":"Feature","geometry":{"type":"Point","coordinates":[-73.9963530004669,40.62484199926125]},"properties":{"name":"New Utrecht Ave","line":"N"}},{"type":"Feature","geometry":{"type":"Point","coordinates":[-73.9733764190409,40.595925158219494]},"properties":{"name":"Ave U","line":"F"}},{"type":"Feature","geometry":{"type":"Point","coordinates":[-73.97235530833724,40.60325873790103]},"properties":{"name":"Kings Hwy","line":"F"}},{"type":"Feature","geometry":{"type":"Point","coordinates":[-73.9613537857206,40.57771052883522]},"properties":{"name":"Brighton Beach","line":"B-Q"}},{"type":"Feature","geometry":{"type":"Point","coordinates":[-73.9540579118221,40.5865478791191]},"properties":{"name":"Sheepshead Bay","line":"B-Q"}},{"type":"Feature","geometry":{"type":"Point","coordinates":[-73.95581122321062,40.599309283625495]},"properties":{"name":"Ave U","line":"B-Q"}},{"type":"Feature","geometry":{"type":"Point","coordinates":[-73.95760873539075,40.60863897749212]},"properties":{"name":"Kings Hwy","line":"B-Q"}},{"type":"Feature","geometry":{"type":"Point","coordinates":[-73.97908400087039,40.5972363327117]},"properties":{"name":"Ave U","line":"N"}},{"type":"Feature","geometry":{"type":"Point","coordinates":[-73.98037300212548,40.60405933243509]},"properties":{"name":"Kings Hwy","line":"N"}},{"type":"Feature","geometry":{"type":"Point","coordinates":[-73.97459272802229,40.58073909058934]},"properties":{"name":"Neptune Ave","line":"F"}},{"type":"Feature","geometry":{"type":"Point","coordinates":[-73.9742659993022,40.58944999891466]},"properties":{"name":"Ave X","line":"F"}},{"type":"Feature","geometry":{"type":"Point","coordinates":[-73.9837650002573,40.58884099893263]},"properties":{"name":"Bay 50th St","line":"D"}},{"type":"Feature","geometry":{"type":"Point","coordinates":[-73.97818899976662,40.59246533297025]},"properties":{"name":"Gravesend - 86th St","line":"N"}},{"type":"Feature","geometry":{"type":"Point","coordinates":[-73.97300281528898,40.60884314164611]},"properties":{"name":"Ave P","line":"F"}},{"type":"Feature","geometry":{"type":"Point","coordinates":[-73.97404850907509,40.61435704436209]},"properties":{"name":"Ave N","line":"F"}},{"type":"Feature","geometry":{"type":"Point","coordinates":[-73.9752569775524,40.62073195527381]},"properties":{"name":"Bay Pky","line":"F"}},{"type":"Feature","geometry":{"type":"Point","coordinates":[-73.95924310477635,40.61739807725093]},"properties":{"name":"Ave M","line":"B-Q"}},{"type":"Feature","geometry":{"type":"Point","coordinates":[-73.98178001024027,40.61145612205187]},"properties":{"name":"Bay Pky","line":"N"}},{"type":"Feature","geometry":{"type":"Point","coordinates":[-73.97606933193556,40.6250177725522]},"properties":{"name":"Ave I","line":"F"}},{"type":"Feature","geometry":{"type":"Point","coordinates":[-73.96069316246769,40.62502315197316]},"properties":{"name":"Ave J","line":"B-Q"}},{"type":"Feature","geometry":{"type":"Point","coordinates":[-73.96151793874006,40.62920870959159]},"properties":{"name":"Ave H","line":"B-Q"}},{"type":"Feature","geometry":{"type":"Point","coordinates":[-73.95507827446245,40.59532202364403]},"properties":{"name":"Neck Rd","line":"B-Q"}},{"type":"Feature","geometry":{"type":"Point","coordinates":[-73.9419376138154,40.753739603051464]},"properties":{"name":"21st St - Queensbridge","line":"F"}},{"type":"Feature","geometry":{"type":"Point","coordinates":[-73.98598399999045,40.762456331700854]},"properties":{"name":"50th St","line":"A-C-E"}},{"type":"Feature","geometry":{"type":"Point","coordinates":[-73.98169782381278,40.76297048455733]},"properties":{"name":"7th Ave","line":"B-D-E"}},{"type":"Feature","geometry":{"type":"Point","coordinates":[-73.98133100211903,40.75864133373238]},"properties":{"name":"47th-50th Sts - Rockefeller Ctr","line":"B-D-F-M"}},{"type":"Feature","geometry":{"type":"Point","coordinates":[-73.9773680013077,40.76408533296917]},"properties":{"name":"57th St","line":"F"}},{"type":"Feature","geometry":{"type":"Point","coordinates":[-73.96608964340207,40.76461842721756]},"properties":{"name":"Lexington Ave - 63rd St","line":"F"}},{"type":"Feature","geometry":{"type":"Point","coordinates":[-73.9532350000272,40.75917233237673]},"properties":{"name":"Roosevelt Island - Main St","line":"F"}},{"type":"Feature","geometry":{"type":"Point","coordinates":[-73.98164872336672,40.76824986405002]},"properties":{"name":"59th St - Columbus Circle","line":"A-B-C-D"}},{"type":"Feature","geometry":{"type":"Point","coordinates":[-73.98420956580884,40.759802306100454]},"properties":{"name":"49th St","line":"N-Q-R"}},{"type":"Feature","geometry":{"type":"Point","coordinates":[-73.98072973313595,40.76456585757549]},"properties":{"name":"57th St","line":"N-Q-R"}},{"type":"Feature","geometry":{"type":"Point","coordinates":[-73.97334700018423,40.76481133181859]},"properties":{"name":"5th Ave - 59th St","line":"N-Q-R"}},{"type":"Feature","geometry":{"type":"Point","coordinates":[-73.96737501664441,40.76270918781066]},"properties":{"name":"Lexington Ave - 59th St","line":"N-Q-R"}},{"type":"Feature","geometry":{"type":"Point","coordinates":[-73.99105699933408,40.750373332643896]},"properties":{"name":"34th St - Penn Station","line":"1-2-3"}},{"type":"Feature","geometry":{"type":"Point","coordinates":[-73.98749500043357,40.75529033223394]},"properties":{"name":"Times Sq - 42nd St","line":"1-2-3"}},{"type":"Feature","geometry":{"type":"Point","coordinates":[-74.00762309342785,40.71016249778872]},"properties":{"name":"Broadway - Nassau St","line":"A-C"}},{"type":"Feature","geometry":{"type":"Point","coordinates":[-74.00858473606803,40.71411133321603]},"properties":{"name":"Chambers St","line":"A-C"}},{"type":"Feature","geometry":{"type":"Point","coordinates":[-73.98973500043807,40.757308330874906]},"properties":{"name":"42nd St - Port Authority Bus Term","line":"A-C-E"}},{"type":"Feature","geometry":{"type":"Point","coordinates":[-73.94906699828148,40.694619331634556]},"properties":{"name":"Myrtle-Willoughby Aves","line":"G"}},{"type":"Feature","geometry":{"type":"Point","coordinates":[-73.95023400050613,40.70037699858555]},"properties":{"name":"Flushing Ave","line":"G"}},{"type":"Feature","geometry":{"type":"Point","coordinates":[-73.99276500454653,40.742954649954534]},"properties":{"name":"23rd St","line":"F-M"}},{"type":"Feature","geometry":{"type":"Point","coordinates":[-73.98777189015537,40.749789732015216]},"properties":{"name":"Herald Sq - 34th St","line":"B-D-F-M"}},{"type":"Feature","geometry":{"type":"Point","coordinates":[-73.98503623995641,40.68840880854297]},"properties":{"name":"Hoyt - Schermerhorn Sts","line":"A-C-G"}},{"type":"Feature","geometry":{"type":"Point","coordinates":[-73.98721815311175,40.69247096951185]},"properties":{"name":"Jay St - Borough Hall","line":"A-C-F"}},{"type":"Feature","geometry":{"type":"Point","coordinates":[-73.99017700117358,40.71385533315342]},"properties":{"name":"East Broadway","line":"F"}},{"type":"Feature","geometry":{"type":"Point","coordinates":[-73.98807806837894,40.7186810747252]},"properties":{"name":"Delancey St","line":"F"}},{"type":"Feature","geometry":{"type":"Point","coordinates":[-73.98993799949142,40.7234019985678]},"properties":{"name":"Lower East Side - 2nd Ave","line":"F"}},{"type":"Feature","geometry":{"type":"Point","coordinates":[-73.94137734825625,40.70040473580167]},"properties":{"name":"Flushing Ave","line":"J-M"}},{"type":"Feature","geometry":{"type":"Point","coordinates":[-73.93562300040666,40.69719533267945]},"properties":{"name":"Myrtle Ave","line":"J-M-Z"}},{"type":"Feature","geometry":{"type":"Point","coordinates":[-73.98977899967628,40.67027199964862]},"properties":{"name":"4th Ave","line":"F-G"}},{"type":"Feature","geometry":{"type":"Point","coordinates":[-73.99589172757457,40.673641393676355]},"properties":{"name":"Smith - 9th Sts","line":"F-G"}},{"type":"Feature","geometry":{"type":"Point","coordinates":[-73.9907564955075,40.68611088004987]},"properties":{"name":"Bergen St","line":"F-G"}},{"type":"Feature","geometry":{"type":"Point","coordinates":[-73.98605667829871,40.69225572843644]},"properties":{"name":"Lawrence St","line":"N-R"}},{"type":"Feature","geometry":{"type":"Point","coordinates":[-73.99181830913476,40.69419681318785]},"properties":{"name":"Court St","line":"N-R"}},{"type":"Feature","geometry":{"type":"Point","coordinates":[-73.99053886168421,40.73587259966802]},"properties":{"name":"Union Sq - 14th St","line":"N-Q-R"}},{"type":"Feature","geometry":{"type":"Point","coordinates":[-73.9893440004543,40.741302999235565]},"properties":{"name":"23rd St","line":"N-R"}},{"type":"Feature","geometry":{"type":"Point","coordinates":[-73.99287200058954,40.66541399916061]},"properties":{"name":"Prospect Ave","line":"D-N-R"}},{"type":"Feature","geometry":{"type":"Point","coordinates":[-73.98830199970392,40.67084699929032]},"properties":{"name":"9th St","line":"D-N-R"}},{"type":"Feature","geometry":{"type":"Point","coordinates":[-73.98575000098687,40.73269133168614]},"properties":{"name":"3rd Ave","line":"L"}},{"type":"Feature","geometry":{"type":"Point","coordinates":[-73.99066976943077,40.73476364459351]},"properties":{"name":"Union Sq - 14th St","line":"L"}},{"type":"Feature","geometry":{"type":"Point","coordinates":[-73.8965480007524,40.67454233193614]},"properties":{"name":"Liberty Ave","line":"A-C"}},{"type":"Feature","geometry":{"type":"Point","coordinates":[-73.90531600029097,40.678333998894786]},"properties":{"name":"Broadway Junction","line":"A-C"}},{"type":"Feature","geometry":{"type":"Point","coordinates":[-74.01788099968466,40.64136199850979]},"properties":{"name":"59th St","line":"N-R"}},{"type":"Feature","geometry":{"type":"Point","coordinates":[-74.01000600035947,40.64893899894614]},"properties":{"name":"45th St","line":"N-R"}},{"type":"Feature","geometry":{"type":"Point","coordinates":[-74.00354899956918,40.655143998818986]},"properties":{"name":"36th St","line":"D-N-R"}},{"type":"Feature","geometry":{"type":"Point","coordinates":[-73.99444874408539,40.6464844099138]},"properties":{"name":"9th Ave","line":"D"}},{"type":"Feature","geometry":{"type":"Point","coordinates":[-74.01403400049041,40.64506899957638]},"properties":{"name":"53rd St","line":"N-R"}},{"type":"Feature","geometry":{"type":"Point","coordinates":[-73.99420223752821,40.640913043659836]},"properties":{"name":"Ft Hamilton Pkwy","line":"D"}},{"type":"Feature","geometry":{"type":"Point","coordinates":[-73.99809099983278,40.660396999388546]},"properties":{"name":"25th St","line":"D-N-R"}},{"type":"Feature","geometry":{"type":"Point","coordinates":[-73.9949469798202,40.68027368376412]},"properties":{"name":"Carroll St","line":"F-G"}},{"type":"Feature","geometry":{"type":"Point","coordinates":[-74.00373899872895,40.72622733401917]},"properties":{"name":"Spring St","line":"A-C-E"}},{"type":"Feature","geometry":{"type":"Point","coordinates":[-73.93796900163547,40.85169533172883]},"properties":{"name":"181st St","line":"A"}},{"type":"Feature","geometry":{"type":"Point","coordinates":[-73.93417999937546,40.859022331286745]},"properties":{"name":"190th St","line":"A"}},{"type":"Feature","geometry":{"type":"Point","coordinates":[-73.95479778092773,40.80505846617425]},"properties":{"name":"116th St","line":"A-B-C"}},{"type":"Feature","geometry":{"type":"Point","coordinates":[-73.95224799754354,40.81107200539482]},"properties":{"name":"125th St","line":"A-B-C-D"}},{"type":"Feature","geometry":{"type":"Point","coordinates":[-73.99770200007187,40.72432899829275]},"properties":{"name":"Prince St","line":"N-R"}},{"type":"Feature","geometry":{"type":"Point","coordinates":[-73.99250799890923,40.73046533105735]},"properties":{"name":"8th St - NYU","line":"N-R"}},{"type":"Feature","geometry":{"type":"Point","coordinates":[-74.00657100024904,40.70941633136059]},"properties":{"name":"Fulton St","line":"2-3"}},{"type":"Feature","geometry":{"type":"Point","coordinates":[-74.00881099987157,40.71305133126757]},"properties":{"name":"Park Pl","line":"2-3"}},{"type":"Feature","geometry":{"type":"Point","coordinates":[-74.00926600172441,40.7154783322407]},"properties":{"name":"Chambers St","line":"1-2-3"}},{"type":"Feature","geometry":{"type":"Point","coordinates":[-73.98506379611648,40.69054451751926]},"properties":{"name":"Hoyt St","line":"2-3"}},{"type":"Feature","geometry":{"type":"Point","coordinates":[-73.98999799906528,40.69321933172708]},"properties":{"name":"Borough Hall","line":"2-3"}},{"type":"Feature","geometry":{"type":"Point","coordinates":[-73.90387900070533,40.858407332558244]},"properties":{"name":"183rd St","line":"4"}},{"type":"Feature","geometry":{"type":"Point","coordinates":[-73.9010339983319,40.86280333227336]},"properties":{"name":"Fordham Rd","line":"4"}},{"type":"Feature","geometry":{"type":"Point","coordinates":[-74.00974461478481,40.71256425917418]},"properties":{"name":"World Trade Center","line":"E"}},{"type":"Feature","geometry":{"type":"Point","coordinates":[-74.00522900191187,40.720824332145696]},"properties":{"name":"Canal St - Holland Tunnel","line":"A-C-E"}},{"type":"Feature","geometry":{"type":"Point","coordinates":[-73.94151400028578,40.83051833207483]},"properties":{"name":"155th St","line":"A-C"}},{"type":"Feature","geometry":{"type":"Point","coordinates":[-73.93989200159308,40.83601333167216]},"properties":{"name":"163rd St - Amsterdam Av","line":"A-C"}},{"type":"Feature","geometry":{"type":"Point","coordinates":[-74.00793800087732,40.710022998677935]},"properties":{"name":"Fulton St","line":"J-Z"}},{"type":"Feature","geometry":{"type":"Point","coordinates":[-74.00340673089002,40.713234121799836]},"properties":{"name":"Chambers St","line":"J-Z"}},{"type":"Feature","geometry":{"type":"Point","coordinates":[-73.99982638555139,40.7181742090284]},"properties":{"name":"Canal St","line":"J-Z"}},{"type":"Feature","geometry":{"type":"Point","coordinates":[-74.0069858179477,40.71327266359828]},"properties":{"name":"City Hall","line":"N-R"}},{"type":"Feature","geometry":{"type":"Point","coordinates":[-74.00182599973184,40.7194653338443]},"properties":{"name":"Canal St","line":"N-R"}},{"type":"Feature","geometry":{"type":"Point","coordinates":[-74.01316895983929,40.701730840020005]},"properties":{"name":"South Ferry","line":"1"}},{"type":"Feature","geometry":{"type":"Point","coordinates":[-74.01400799848192,40.70491433156353]},"properties":{"name":"Bowling Green","line":"4-5"}},{"type":"Feature","geometry":{"type":"Point","coordinates":[-74.01186199920531,40.70755733342955]},"properties":{"name":"Wall St","line":"4-5"}},{"type":"Feature","geometry":{"type":"Point","coordinates":[-74.01300723736428,40.703142706426924]},"properties":{"name":"Whitehall St","line":"N-R"}},{"type":"Feature","geometry":{"type":"Point","coordinates":[-74.01297456237405,40.70774508901753]},"properties":{"name":"Rector St","line":"N-R"}},{"type":"Feature","geometry":{"type":"Point","coordinates":[-73.89589800086408,40.70622633104967]},"properties":{"name":"Fresh Pond Rd","line":"M"}},{"type":"Feature","geometry":{"type":"Point","coordinates":[-73.88957722978758,40.711431637346294]},"properties":{"name":"Middle Village - Metropolitan Ave","line":"M"}},{"type":"Feature","geometry":{"type":"Point","coordinates":[-74.01378300080624,40.70751333210902]},"properties":{"name":"Rector St","line":"1"}},{"type":"Feature","geometry":{"type":"Point","coordinates":[-74.01218800069748,40.711835333592205]},"properties":{"name":"Cortlandt St (Temporarily Closed)","line":"1"}},{"type":"Feature","geometry":{"type":"Point","coordinates":[-74.00950899874383,40.710368330997916]},"properties":{"name":"Fulton St","line":"4-5"}},{"type":"Feature","geometry":{"type":"Point","coordinates":[-74.01105600048916,40.70647633318466]},"properties":{"name":"Broad St","line":"J-Z"}},{"type":"Feature","geometry":{"type":"Point","coordinates":[-74.01113196483963,40.71051331673736]},"properties":{"name":"Cortlandt St (NB only)","line":"N-R"}},{"type":"Feature","geometry":{"type":"Point","coordinates":[-74.0090999989945,40.70682133185746]},"properties":{"name":"Wall St","line":"2-3"}},{"type":"Feature","geometry":{"type":"Point","coordinates":[-73.9272709991317,40.86549133160925]},"properties":{"name":"Dyckman St","line":"A"}},{"type":"Feature","geometry":{"type":"Point","coordinates":[-73.99375299925889,40.71826733199076]},"properties":{"name":"Grand St","line":"B-D"}},{"type":"Feature","geometry":{"type":"Point","coordinates":[-73.9962039984028,40.72529733136624]},"properties":{"name":"Broadway - Lafayette St","line":"B-D-F-M"}},{"type":"Feature","geometry":{"type":"Point","coordinates":[-73.99380690672804,40.72024721580506]},"properties":{"name":"Bowery","line":"J-Z"}},{"type":"Feature","geometry":{"type":"Point","coordinates":[-74.00105471253049,40.718814595889654]},"properties":{"name":"Canal St","line":"N-Q"}},{"type":"Feature","geometry":{"type":"Point","coordinates":[-73.99804100061169,40.74590633203089]},"properties":{"name":"23rd St","line":"A-C-E"}},{"type":"Feature","geometry":{"type":"Point","coordinates":[-73.99339099930405,40.75228733319803]},"properties":{"name":"34th St - Penn Station","line":"A-C-E"}},{"type":"Feature","geometry":{"type":"Point","coordinates":[-73.89129866498952,40.74654002355199]},"properties":{"name":"Jackson Hts - Roosevelt Av","line":"E-F-M-R"}},{"type":"Feature","geometry":{"type":"Point","coordinates":[-74.00020100059415,40.73782633237534]},"properties":{"name":"14th St","line":"1-2-3"}},{"type":"Feature","geometry":{"type":"Point","coordinates":[-73.94753480832394,40.81790589117516]},"properties":{"name":"135th St","line":"A-B-C"}},{"type":"Feature","geometry":{"type":"Point","coordinates":[-73.9962089989117,40.738228331950566]},"properties":{"name":"14th St","line":"F-M"}},{"type":"Feature","geometry":{"type":"Point","coordinates":[-73.99775078872285,40.73774180217906]},"properties":{"name":"6th Ave","line":"L"}},{"type":"Feature","geometry":{"type":"Point","coordinates":[-74.00257800047764,40.73977699918822]},"properties":{"name":"8th Ave","line":"L"}},{"type":"Feature","geometry":{"type":"Point","coordinates":[-74.00168999943747,40.74089333270543]},"properties":{"name":"14th St","line":"A-C-E"}},{"type":"Feature","geometry":{"type":"Point","coordinates":[-73.95042624893817,40.66993848305493]},"properties":{"name":"Nostrand Ave","line":"3-4"}},{"type":"Feature","geometry":{"type":"Point","coordinates":[-73.99308599832653,40.69746633205194]},"properties":{"name":"Clark St","line":"2-3"}},{"type":"Feature","geometry":{"type":"Point","coordinates":[-73.95684799980506,40.68137999882649]},"properties":{"name":"Franklin Ave","line":"A-C"}},{"type":"Feature","geometry":{"type":"Point","coordinates":[-73.96583799868547,40.683263331942776]},"properties":{"name":"Clinton - Washington Aves","line":"A-C"}},{"type":"Feature","geometry":{"type":"Point","coordinates":[-73.90307499994638,40.70441233309539]},"properties":{"name":"Forest Ave","line":"M"}},{"type":"Feature","geometry":{"type":"Point","coordinates":[-73.94424999696709,40.79502033259065]},"properties":{"name":"110th St","line":"4-6-6 Express"}},{"type":"Feature","geometry":{"type":"Point","coordinates":[-73.95558899978448,40.77949233083758]},"properties":{"name":"86th St","line":"4-5-6-6 Express"}},{"type":"Feature","geometry":{"type":"Point","coordinates":[-73.98688499982445,40.69974299998894]},"properties":{"name":"York St","line":"F"}},{"type":"Feature","geometry":{"type":"Point","coordinates":[-73.9905310009556,40.699337331804976]},"properties":{"name":"High St","line":"A-C"}},{"type":"Feature","geometry":{"type":"Point","coordinates":[-73.97394599824156,40.686113332368286]},"properties":{"name":"Lafayette Ave","line":"A-C"}},{"type":"Feature","geometry":{"type":"Point","coordinates":[-73.95058920055882,40.66788393563946]},"properties":{"name":"President St","line":"2-5"}},{"type":"Feature","geometry":{"type":"Point","coordinates":[-73.87875099890873,40.886037332211195]},"properties":{"name":"Woodlawn","line":"4"}},{"type":"Feature","geometry":{"type":"Point","coordinates":[-73.99465900013318,40.725914998796796]},"properties":{"name":"Bleecker St (Uptown)","line":"4-6-6 Express"}},{"type":"Feature","geometry":{"type":"Point","coordinates":[-73.94747800151535,40.79060033204227]},"properties":{"name":"103rd St","line":"4-6-6 Express"}},{"type":"Feature","geometry":{"type":"Point","coordinates":[-73.87210599994202,40.675377331000455]},"properties":{"name":"Euclid Ave","line":"A-C-S"}},{"type":"Feature","geometry":{"type":"Point","coordinates":[-73.85146999893553,40.67984333345851]},"properties":{"name":"88th St","line":"A-S"}},{"type":"Feature","geometry":{"type":"Point","coordinates":[-73.96379005494857,40.640940497787355]},"properties":{"name":"Cortelyou Rd","line":"B-Q"}},{"type":"Feature","geometry":{"type":"Point","coordinates":[-73.94161699828473,40.798629332912505]},"properties":{"name":"116th St","line":"4-6-6 Express"}},{"type":"Feature","geometry":{"type":"Point","coordinates":[-73.86081599995802,40.8332263312468]},"properties":{"name":"Parkchester","line":"6-6 Express"}},{"type":"Feature","geometry":{"type":"Point","coordinates":[-74.00688600226547,40.71931833327351]},"properties":{"name":"Franklin St","line":"1-2"}},{"type":"Feature","geometry":{"type":"Point","coordinates":[-73.85899200121284,40.67937133363779]},"properties":{"name":"80th St","line":"A-S"}},{"type":"Feature","geometry":{"type":"Point","coordinates":[-73.98196299871366,40.75382133266057]},"properties":{"name":"5th Ave - Bryant Pk","line":"7-7 Express"}},{"type":"Feature","geometry":{"type":"Point","coordinates":[-73.9971409995061,40.72230133238419]},"properties":{"name":"Spring St","line":"4-6-6 Express"}},{"type":"Feature","geometry":{"type":"Point","coordinates":[-73.93759400019057,40.80413833309592]},"properties":{"name":"125th St","line":"4-5-6-6 Express"}},{"type":"Feature","geometry":{"type":"Point","coordinates":[-73.98123599855967,40.577281332511674]},"properties":{"name":"Coney Island - Stillwell Av","line":"D-F-N-Q"}}]}